[Satellite]
VERSION=1.1
NAME=AJISAI (EGS)
NICKNAME=AJISAI (EGS)
TLE1=1 16908U 86061A   17186.29723153 -.00000107  00000-0 -64715-4 0  9997
TLE2=2 16908  50.0094 118.8581 0011327 139.6282  28.3244 12.44485995 73487
